     3.03           N: GNSS NAV DATA    M: Mixed            RINEX VERSION / TYPE
RTKCONV demo5 b34f.1                    20230902 150137 UTC PGM / RUN BY / DATE 
format: u-blox UBX                                          COMMENT             
log: C:\Users\oo\Desktop\log_gnss_02062023-00-45-55.ubx     COMMENT             
                                                            END OF HEADER       
G01 2023 09 02 10 00 00  .166581012309D-03 -.113686837722D-11  .000000000000D+00
      .910000000000D+02  .222187500000D+02  .381087302387D-08  .122264868018D+01
      .124052166939D-05  .128777220380D-01  .131707638502D-04  .515364085770D+04
      .554400000000D+06 -.247731804848D-06  .639229849163D+00  .124797224998D-06
      .990467996533D+00  .144468750000D+03  .992784827210D+00 -.778246702813D-08
      .564309220030D-10  .100000000000D+01  .227700000000D+04  .000000000000D+00
      .280000000000D+01  .630000000000D+02  .512227416039D-08  .910000000000D+02
      .553836000000D+06  .400000000000D+01
G02 2023 09 02 10 00 00 -.558652915061D-03  .432009983342D-11  .000000000000D+00
      .880000000000D+02  .208437500000D+02  .418624580251D-08 -.236812884422D+01
      .114738941193D-05  .159849995980D-01  .128746032715D-04  .515354085541D+04
      .554400000000D+06  .121071934700D-06  .538527052430D+00  .234693288803D-06
      .967813459281D+00  .129125000000D+03 -.134756170027D+01 -.755138597411D-08
      .104647216119D-09  .100000000000D+01  .227700000000D+04  .000000000000D+00
      .200000000000D+01  .000000000000D+00 -.176951289177D-07  .880000000000D+02
      .553836000000D+06  .400000000000D+01
G08 2023 09 02 10 00 00 -.140197109431D-03 -.193267624127D-11  .000000000000D+00
      .189000000000D+03 -.786250000000D+02  .489234664302D-08 -.289929667116D+01
     -.404752790928D-05  .858635338955D-02  .639073550701D-05  .515374342346D+04
      .554400000000D+06 -.186264514923D-06 -.455044488235D+00 -.102445483208D-06
      .957275915527D+00  .257375000000D+03  .270605327112D+00 -.823927177017D-08
     -.396802242692D-09  .100000000000D+01  .227700000000D+04  .000000000000D+00
      .200000000000D+01  .000000000000D+00  .512227416039D-08  .189000000000D+03
      .553836000000D+06  .400000000000D+01
G21 2023 09 02 10 00 00  .149683561176D-03 -.682121026330D-12  .000000000000D+00
      .134000000000D+03  .185625000000D+02  .419196032626D-08 -.289033628476D+01
      .108964741230D-05  .247553633526D-01  .134240835905D-04  .515358651352D+04
      .554400000000D+06 -.150874257088D-06  .532931725786D+00  .353902578354D-06
      .962105498184D+00  .115625000000D+03 -.712562136205D+00 -.745138180853D-08
      .671456540289D-10  .100000000000D+01  .227700000000D+04  .000000000000D+00
      .200000000000D+01  .000000000000D+00 -.102445483208D-07  .134000000000D+03
      .553836000000D+06  .400000000000D+01
G32 2023 09 02 10 00 00 -.551204662770D-03 -.636646291241D-11  .000000000000D+00
      .440000000000D+02 -.887187500000D+02  .457126183998D-08 -.225017581635D+01
     -.443868339062D-05  .696551240981D-02  .661052763462D-05  .515356760788D+04
      .554400000000D+06  .167638063431D-07  .270599579892D+01 -.134110450745D-06
      .960501635263D+00  .253750000000D+03 -.222035452535D+01 -.811783814054D-08
     -.464662212189D-09  .100000000000D+01  .227700000000D+04  .000000000000D+00
      .200000000000D+01  .000000000000D+00  .465661287308D-09  .440000000000D+02
      .553836000000D+06  .400000000000D+01
G03 2023 09 02 10 00 00 -.156756956130D-03  .196678229258D-10  .000000000000D+00
      .280000000000D+02  .554062500000D+02  .458019078333D-08  .221871349261D-01
      .292062759399D-05  .512115622405D-02  .451505184174D-05  .515360040855D+04
      .554400000000D+06 -.931322574615D-08  .166906517456D+01  .102445483208D-06
      .980041712088D+00  .301218750000D+03  .110256957299D+01 -.834641909043D-08
      .236438420038D-09  .100000000000D+01  .227700000000D+04  .000000000000D+00
      .200000000000D+01  .000000000000D+00  .186264514923D-08  .280000000000D+02
      .553836000000D+06  .400000000000D+01
G14 2023 09 02 10 00 00  .172649975866D-03  .114823706099D-10  .000000000000D+00
      .700000000000D+01  .672812500000D+02  .528879172798D-08 -.220601596348D+00
      .362098217010D-05  .354068540037D-02  .388175249100D-05  .515367316055D+04
      .554400000000D+06  .819563865662D-07 -.144428181079D+01 -.149011611938D-07
      .947479541663D+00  .297156250000D+03 -.294723302658D+01 -.874500712179D-08
      .487520307178D-09  .100000000000D+01  .227700000000D+04  .000000000000D+00
      .200000000000D+01  .000000000000D+00 -.791624188423D-08  .775000000000D+03
      .553056000000D+06  .400000000000D+01
G10 2023 09 02 10 00 00 -.517480075359D-04 -.159161572810D-11  .000000000000D+00
      .610000000000D+02  .494062500000D+02  .445947146917D-08 -.865102334962D+00
      .245124101639D-05  .873599271290D-02  .496394932270D-05  .515368321228D+04
      .554400000000D+06  .126659870148D-06  .166644724754D+01  .121071934700D-06
      .979758265859D+00  .295187500000D+03 -.244403202546D+01 -.824855787126D-08
      .188936441390D-09  .100000000000D+01  .227700000000D+04  .000000000000D+00
      .200000000000D+01  .000000000000D+00  .232830643654D-08  .610000000000D+02
      .551076000000D+06  .400000000000D+01
G22 2023 09 02 10 00 00  .129761174321D-03 -.738964445191D-11  .000000000000D+00
      .660000000000D+02  .648437500000D+02  .484377319117D-08 -.232753290848D+01
      .369735062122D-05  .153637175681D-01  .346638262272D-05  .515360827827D+04
      .554400000000D+06  .117346644402D-06 -.138255476656D+01  .212341547012D-06
      .963029521131D+00  .309750000000D+03 -.119343166944D+01 -.830463163553D-08
      .471448209139D-09  .100000000000D+01  .227700000000D+04  .000000000000D+00
      .280000000000D+01  .000000000000D+00 -.111758708954D-07  .660000000000D+02
      .553806000000D+06  .400000000000D+01
G27 2023 09 02 10 00 00 -.326302833855D-04 -.648014975013D-11  .000000000000D+00
      .570000000000D+02 -.775000000000D+02  .465947980032D-08 -.283491998824D+01
     -.420026481152D-05  .115896593779D-01  .665709376335D-05  .515366936493D+04
      .554400000000D+06  .223517417908D-07 -.430881934065D+00 -.303611159325D-06
      .966223608189D+00  .254593750000D+03  .741997117353D+00 -.814069623553D-08
     -.368943939425D-09  .100000000000D+01  .227700000000D+04  .000000000000D+00
      .200000000000D+01  .000000000000D+00  .139698386192D-08  .570000000000D+02
      .550446000000D+06  .400000000000D+01
G17 2023 09 02 09 59 44  .723428092897D-03  .341060513165D-12  .000000000000D+00
      .950000000000D+02 -.907812500000D+02  .452340270359D-08 -.290771217763D+01
     -.457279384136D-05  .136954694754D-01  .732019543648D-05  .515357239723D+04
      .554384000000D+06  .208616256714D-06 -.364522180841D+00  .257045030594D-06
      .972987649847D+00  .239218750000D+03 -.140304450250D+01 -.800354766560D-08
     -.425732019162D-09  .100000000000D+01  .227700000000D+04  .000000000000D+00
      .200000000000D+01  .000000000000D+00 -.111758708954D-07  .950000000000D+02
      .553836000000D+06  .400000000000D+01
G28 2023 09 02 10 00 00 -.458024442196D-05 -.454747350886D-11  .000000000000D+00
      .131000000000D+03  .925000000000D+01  .404588281297D-08 -.859348071045D+00
      .601634383202D-06  .662034028210D-03  .130962580442D-04  .515374520111D+04
      .554400000000D+06  .204890966415D-07 -.255548484456D+01  .521540641785D-07
      .961837260451D+00  .126593750000D+03  .159776308573D+01 -.780853954273D-08
      .165006873199D-09  .100000000000D+01  .227700000000D+04  .000000000000D+00
      .200000000000D+01  .000000000000D+00 -.977888703346D-08  .131000000000D+03
      .553836000000D+06  .400000000000D+01
G04 2023 09 02 09 59 44  .143950805068D-03  .112549969344D-10  .000000000000D+00
      .205000000000D+03 -.855625000000D+02  .456840457810D-08  .302964725535D+01
     -.453926622868D-05  .253171916120D-02  .745058059692D-05  .515362758064D+04
      .554384000000D+06 -.409781932831D-07  .274987015017D+01  .931322574615D-08
      .963598509951D+00  .236906250000D+03 -.303372452653D+01 -.816748306560D-08
     -.570023743777D-09  .100000000000D+01  .227700000000D+04  .000000000000D+00
      .200000000000D+01  .000000000000D+00 -.419095158577D-08  .205000000000D+03
      .553836000000D+06  .400000000000D+01
G19 2023 09 02 10 00 00  .365959014744D-03  .522959453519D-11  .000000000000D+00
      .690000000000D+02 -.877500000000D+02  .457804783693D-08 -.802863604412D+00
     -.465475022793D-05  .943509477656D-02  .813044607639D-05  .515364265251D+04
      .554400000000D+06 -.745058059692D-08 -.320070772781D+00 -.651925802231D-07
      .972117880680D+00  .229187500000D+03  .240300392470D+01 -.833248993879D-08
     -.407516974718D-09  .100000000000D+01  .227700000000D+04  .000000000000D+00
      .200000000000D+01  .000000000000D+00 -.153668224812D-07  .690000000000D+02
      .550776000000D+06  .400000000000D+01
G31 2023 09 02 10 00 00 -.222783535719D-03 -.568434188608D-12  .000000000000D+00
      .870000000000D+02  .275937500000D+02  .427982112887D-08 -.315925396909D+00
      .166334211826D-05  .104175602319D-01  .123661011457D-04  .515362520027D+04
      .554400000000D+06  .109896063805D-06 -.249891476210D+01  .121071934700D-06
      .954713235616D+00  .138250000000D+03  .576184829851D+00 -.810248035797D-08
      .212151694112D-09  .100000000000D+01  .227700000000D+04  .000000000000D+00
      .200000000000D+01  .000000000000D+00 -.130385160446D-07  .870000000000D+02
      .552246000000D+06  .400000000000D+01
G09 2023 09 02 10 00 00 -.706487335265D-04  .101181285572D-10  .000000000000D+00
      .570000000000D+02 -.829062500000D+02  .477591322167D-08 -.235328610518D+01
     -.436790287495D-05  .268816412427D-02  .687874853611D-05  .515354966927D+04
      .554400000000D+06  .149011611938D-07  .269242126357D+01  .391155481339D-07
      .956921457791D+00  .245781250000D+03  .194388087645D+01 -.827605901679D-08
     -.589667419158D-09  .100000000000D+01  .227700000000D+04  .000000000000D+00
      .200000000000D+01  .000000000000D+00  .931322574615D-09  .570000000000D+02
      .553716000000D+06  .400000000000D+01
